GLOBALSTAR M067         
1 32263U 07048A   24243.52323679 -.00000097  00000+0  10831-5 0  9991
2 32263  51.9720 166.4270 0001337  69.1803 102.3361 12.40652855773404
GLOBALSTAR M070         
1 32264U 07048B   24243.88091525 -.00000045  00000+0  32622-3 0  9996
2 32264  51.9749 292.8853 0000605 144.9242  26.0643 12.62298891777008
GLOBALSTAR M066         
1 32265U 07048C   24242.55823486 -.00000034  00000+0  41700-3 0  9994
2 32265  51.9668 159.8428 0001184 312.2743 219.5888 12.55317134779082
GLOBALSTAR M068         
1 32266U 07048D   24243.89810934 -.00000064  00000+0  22085-3 0  9995
2 32266  51.9877 107.1384 0000455 158.1319 213.8552 12.62798014780881
GLOBALSTAR M079         
1 37188U 10054A   24243.91289951 -.00000075  00000+0  15873-3 0  9995
2 37188  52.0045 303.4316 0000475  80.5624  91.9049 12.62263324639793
GLOBALSTAR M074         
1 37189U 10054B   24243.93911057 -.00000065  00000+0  21719-3 0  9992
2 37189  52.0022 302.7181 0000465 115.5503  56.6877 12.62272140640408
GLOBALSTAR M076         
1 37190U 10054C   24243.88728324 -.00000058  00000+0  25412-3 0  9997
2 37190  52.0036 303.0245 0000838  93.8968  80.3801 12.62256056640114
GLOBALSTAR M077         
1 37191U 10054D   24243.79411745 -.00000078  00000+0  14427-3 0  9990
2 37191  52.0050 260.0769 0000288 109.2758  62.7781 12.62263199640478
